{"type": "FeatureCollection", "features": [ {"type": "Feature", "properties": {"norad_id": 31535, "name": "FENGYUN 1C DEB", "group": "fengyun-1c-debris", "lat": 36.50073060164201, "lon": -158.66622205373332, "alt_km": 795.5532723570095, "timestamp": "2025-12-24T07:45:06.482878+00:00", "meta": {"OBJECT_NAME": "FENGYUN 1C DEB", "OBJECT_ID": "1999-025BYA", "EPOCH": "2025-12-08T20:01:31.264032", "MEAN_MOTION": 14.28309987, "ECCENTRICITY": 0.00876599, "INCLINATION": 98.0348, "RA_OF_ASC_NODE": 193.0693, "ARG_OF_PERICENTER": 174.5726, "MEAN_ANOMALY": 185.6428, "EPHEMERIS_TYPE": 0, "CLASSIFICATION_TYPE": "U", "NORAD_CAT_ID": 31535, "ELEMENT_SET_NO": 999, "REV_AT_EPOCH": 71875, "BSTAR": 0.0012494375, "MEAN_MOTION_DOT": 3.212e-05, "MEAN_MOTION_DDOT": 0}, "tle": {"line1": "1 31535U 99025BYA 25342.83438963  .00003212  00000+0  12494-2 0  9991", "line2": "2 31535  98.0348 193.0693 0087659 174.5726 185.6428 14.28309987718752"}}, "geometry": {"type": "Point", "coordinates": [-158.66622205373332, 36.50073060164201]}}, {"type": "Feature", "properties": {"norad_id": 31536, "name": "FENGYUN 1C DEB", "group": "fengyun-1c-debris", "lat": -69.45713731198302, "lon": 62.79736043131115, "alt_km": 880.7669912858019, "timestamp": "2025-12-24T07:45:06.482888+00:00", "meta": {"OBJECT_NAME": "FENGYUN 1C DEB", "OBJECT_ID": "1999-025BYB", "EPOCH": "2025-12-22T16:38:59.021952", "MEAN_MOTION": 14.54434146, "ECCENTRICITY": 0.02945648, "INCLINATION": 98.2371, "RA_OF_ASC_NODE": 263.9312, "ARG_OF_PERICENTER": 114.0299, "MEAN_ANOMALY": 249.2024, "EPHEMERIS_TYPE": 0, "CLASSIFICATION_TYPE": "U", "NORAD_CAT_ID": 31536, "ELEMENT_SET_NO": 999, "REV_AT_EPOCH": 96402, "BSTAR": 0.00085666971, "MEAN_MOTION_DOT": 6.488e-05, "MEAN_MOTION_DDOT": 0}, "tle": {"line1": "1 31536U 99025BYB 25356.69373868  .00006488  00000+0  85667-3 0  9994", "line2": "2 31536  98.2371 263.9312 0294564 114.0299 249.2024 14.54434146964022"}}, "geometry": {"type": "Point", "coordinates": [62.79736043131115, -69.45713731198302]}}, {"type": "Feature", "properties": {"norad_id": 31537, "name": "FENGYUN 1C DEB", "group": "fengyun-1c-debris", "lat": -72.4745138445381, "lon": -176.6748874810928, "alt_km": 581.3262437976373, "timestamp": "2025-12-24T07:45:06.482900+00:00", "meta": {"OBJECT_NAME": "FENGYUN 1C DEB", "OBJECT_ID": "1999-025BYC", "EPOCH": "2025-12-22T15:30:50.364864", "MEAN_MOTION": 14.20468164, "ECCENTRICITY": 0.03487105, "INCLINATION": 99.2934, "RA_OF_ASC_NODE": 150.3269, "ARG_OF_PERICENTER": 296.2481, "MEAN_ANOMALY": 60.3246, "EPHEMERIS_TYPE": 0, "CLASSIFICATION_TYPE": "U", "NORAD_CAT_ID": 31537, "ELEMENT_SET_NO": 999, "REV_AT_EPOCH": 93422, "BSTAR": 0.0026080635, "MEAN_MOTION_DOT": 0.00010318, "MEAN_MOTION_DDOT": 0}, "tle": {"line1": "1 31537U 99025BYC 25356.64641626  .00010318  00000+0  26081-2 0  9991", "line2": "2 31537  99.2934 150.3269 0348710 296.2481  60.3246 14.20468164934225"}}, "geometry": {"type": "Point", "coordinates": [-176.6748874810928, -72.4745138445381]}}, {"type": "Feature", "properties": {"norad_id": 31540, "name": "FENGYUN 1C DEB", "group": "fengyun-1c-debris", "lat": -9.109211646617418, "lon": 160.4005071918409, "alt_km": 667.4723526757989, "timestamp": "2025-12-24T07:45:06.482914+00:00", "meta": {"OBJECT_NAME": "FENGYUN 1C DEB", "OBJECT_ID": "1999-025BYF", "EPOCH": "2025-12-23T05:34:33.525408", "MEAN_MOTION": 14.6550063, "ECCENTRICITY": 0.01764738, "INCLINATION": 99.0576, "RA_OF_ASC_NODE": 157.7332, "ARG_OF_PERICENTER": 268.7753, "MEAN_ANOMALY": 89.3225, "EPHEMERIS_TYPE": 0, "CLASSIFICATION_TYPE": "U", "NORAD_CAT_ID": 31540, "ELEMENT_SET_NO": 999, "REV_AT_EPOCH": 98455, "BSTAR": 0.0010217432, "MEAN_MOTION_DOT": 6.907e-05, "MEAN_MOTION_DDOT": 0}, "tle": {"line1": "1 31540U 99025BYF 25357.23233247  .00006907  00000+0  10217-2 0  9990", "line2": "2 31540  99.0576 157.7332 0176473 268.7753  89.3225 14.65500630984555"}}, "geometry": {"type": "Point", "coordinates": [160.4005071918409, -9.109211646617418]}}, {"type": "Feature", "properties": {"norad_id": 31541, "name": "FENGYUN 1C DEB", "group": "fengyun-1c-debris", "lat": 54.7278169138393, "lon": 128.944604041533, "alt_km": 706.0573036159803, "timestamp": "2025-12-24T07:45:06.482924+00:00", "meta": {"OBJECT_NAME": "FENGYUN 1C DEB", "OBJECT_ID": "1999-025BYG", "EPOCH": "2025-12-21T20:38:38.586912", "MEAN_MOTION": 14.6896364, "ECCENTRICITY": 0.00784635, "INCLINATION": 98.98, "RA_OF_ASC_NODE": 139.1593, "ARG_OF_PERICENTER": 211.9994, "MEAN_ANOMALY": 147.6432, "EPHEMERIS_TYPE": 0, "CLASSIFICATION_TYPE": "U", "NORAD_CAT_ID": 31541, "ELEMENT_SET_NO": 999, "REV_AT_EPOCH": 98557, "BSTAR": 0.0013716905, "MEAN_MOTION_DOT": 8.366e-05, "MEAN_MOTION_DDOT": 0}, "tle": {"line1": "1 31541U 99025BYG 25355.86016883  .00008366  00000+0  13717-2 0  9992", "line2": "2 31541  98.9800 139.1593 0078463 211.9994 147.6432 14.68963640985572"}}, "geometry": {"type": "Point", "coordinates": [128.944604041533, 54.7278169138393]}}, {"type": "Feature", "properties": {"norad_id": 31542, "name": "FENGYUN 1C DEB", "group": "fengyun-1c-debris", "lat": 9.280231882234764, "lon": -126.33435042243626, "alt_km": 782.9509799537182, "timestamp": "2025-12-24T07:45:06.482934+00:00", "meta": {"OBJECT_NAME": "FENGYUN 1C DEB", "OBJECT_ID": "1999-025BYH", "EPOCH": "2025-12-23T09:00:46.396800", "MEAN_MOTION": 14.22851184, "ECCENTRICITY": 0.00478944, "INCLINATION": 98.7301, "RA_OF_ASC_NODE": 51.288, "ARG_OF_PERICENTER": 176.9296, "MEAN_ANOMALY": 183.2185, "EPHEMERIS_TYPE": 0, "CLASSIFICATION_TYPE": "U", "NORAD_CAT_ID": 31542, "ELEMENT_SET_NO": 999, "REV_AT_EPOCH": 96091, "BSTAR": 0.0012852727, "MEAN_MOTION_DOT": 2.877e-05, "MEAN_MOTION_DDOT": 0}, "tle": {"line1": "1 31542U 99025BYH 25357.37553700  .00002877  00000+0  12853-2 0  9996", "line2": "2 31542  98.7301  51.2880 0047894 176.9296 183.2185 14.22851184960910"}}, "geometry": {"type": "Point", "coordinates": [-126.33435042243626, 9.280231882234764]}}, {"type": "Feature", "properties": {"norad_id": 31544, "name": "FENGYUN 1C DEB", "group": "fengyun-1c-debris", "lat": -81.00068207433655, "lon": 150.54930349243165, "alt_km": 832.1809200284742, "timestamp": "2025-12-24T07:45:06.482944+00:00", "meta": {"OBJECT_NAME": "FENGYUN 1C DEB", "OBJECT_ID": "1999-025BYK", "EPOCH": "2025-12-22T10:20:35.081376", "MEAN_MOTION": 14.14359975, "ECCENTRICITY": 0.00322241, "INCLINATION": 98.8282, "RA_OF_ASC_NODE": 47.5818, "ARG_OF_PERICENTER": 240.9868, "MEAN_ANOMALY": 118.8075, "EPHEMERIS_TYPE": 0, "CLASSIFICATION_TYPE": "U", "NORAD_CAT_ID": 31544, "ELEMENT_SET_NO": 999, "REV_AT_EPOCH": 95894, "BSTAR": 0.0006556952, "MEAN_MOTION_DOT": 1.216e-05, "MEAN_MOTION_DDOT": 0}, "tle": {"line1": "1 31544U 99025BYK 25356.43096159  .00001216  00000+0  65570-3 0  9995", "line2": "2 31544  98.8282  47.5818 0032224 240.9868 118.8075 14.14359975958942"}}, "geometry": {"type": "Point", "coordinates": [150.54930349243165, -81.00068207433655]}}, {"type": "Feature", "properties": {"norad_id": 31546, "name": "FENGYUN 1C DEB", "group": "fengyun-1c-debris", "lat": 20.995310593009695, "lon": 63.739285790583494, "alt_km": 832.6898463865164, "timestamp": "2025-12-24T07:45:06.482954+00:00", "meta": {"OBJECT_NAME": "FENGYUN 1C DEB", "OBJECT_ID": "1999-025BYM", "EPOCH": "2025-12-19T10:24:07.291008", "MEAN_MOTION": 14.13171121, "ECCENTRICITY": 0.0145952, "INCLINATION": 98.2438, "RA_OF_ASC_NODE": 62.4217, "ARG_OF_PERICENTER": 117.7512, "MEAN_ANOMALY": 243.855, "EPHEMERIS_TYPE": 0, "CLASSIFICATION_TYPE": "U", "NORAD_CAT_ID": 31546, "ELEMENT_SET_NO": 999, "REV_AT_EPOCH": 94883, "BSTAR": 0.0011276, "MEAN_MOTION_DOT": 2.297e-05, "MEAN_MOTION_DDOT": 0}, "tle": {"line1": "1 31546U 99025BYM 25353.43341772  .00002297  00000+0  11276-2 0  9991", "line2": "2 31546  98.2438  62.4217 0145952 117.7512 243.8550 14.13171121948838"}}, "geometry": {"type": "Point", "coordinates": [63.739285790583494, 20.995310593009695]}}, {"type": "Feature", "properties": {"norad_id": 31547, "name": "FENGYUN 1C DEB", "group": "fengyun-1c-debris", "lat": -30.245488257709592, "lon": -142.89256647646232, "alt_km": 781.728137882692, "timestamp": "2025-12-24T07:45:06.482963+00:00", "meta": {"OBJECT_NAME": "FENGYUN 1C DEB", "OBJECT_ID": "1999-025BYN", "EPOCH": "2025-12-23T20:38:21.519456", "MEAN_MOTION": 14.23194387, "ECCENTRICITY": 0.00545645, "INCLINATION": 99.0859, "RA_OF_ASC_NODE": 41.9836, "ARG_OF_PERICENTER": 221.2815, "MEAN_ANOMALY": 138.4231, "EPHEMERIS_TYPE": 0, "CLASSIFICATION_TYPE": "U", "NORAD_CAT_ID": 31547, "ELEMENT_SET_NO": 999, "REV_AT_EPOCH": 64175, "BSTAR": 0.00131866, "MEAN_MOTION_DOT": 2.981e-05, "MEAN_MOTION_DDOT": 0}, "tle": {"line1": "1 31547U 99025BYN 25357.85997129  .00002981  00000+0  13187-2 0  9998", "line2": "2 31547  99.0859  41.9836 0054564 221.2815 138.4231 14.23194387641755"}}, "geometry": {"type": "Point", "coordinates": [-142.89256647646232, -30.245488257709592]}}, {"type": "Feature", "properties": {"norad_id": 31550, "name": "FENGYUN 1C DEB", "group": "fengyun-1c-debris", "lat": 18.63814027507867, "lon": -5.371841618693891, "alt_km": 862.481500609978, "timestamp": "2025-12-24T07:45:06.482992+00:00", "meta": {"OBJECT_NAME": "FENGYUN 1C DEB", "OBJECT_ID": "1999-025BYR", "EPOCH": "2025-12-19T17:37:00.408000", "MEAN_MOTION": 14.40245383, "ECCENTRICITY": 0.01900387, "INCLINATION": 98.3108, "RA_OF_ASC_NODE": 352.9958, "ARG_OF_PERICENTER": 251.6131, "MEAN_ANOMALY": 106.4311, "EPHEMERIS_TYPE": 0, "CLASSIFICATION_TYPE": "U", "NORAD_CAT_ID": 31550, "ELEMENT_SET_NO": 999, "REV_AT_EPOCH": 65555, "BSTAR": 0.00046139834, "MEAN_MOTION_DOT": 1.756e-05, "MEAN_MOTION_DDOT": 0}, "tle": {"line1": "1 31550U 99025BYR 25353.73403250  .00001756  00000+0  46140-3 0  9997", "line2": "2 31550  98.3108 352.9958 0190038 251.6131 106.4311 14.40245383655552"}}, "geometry": {"type": "Point", "coordinates": [-5.371841618693891, 18.63814027507867]}}]}